MAKERSAT 0              
1 43016U 17073D   26099.20953053  .00018660  00000+0  54032-3 0  9992
2 43016  97.4723 341.3111 0114408 157.1245 203.5151 15.29255400455919
SIRION PATHFINDER-2     
1 43759U 18099B   26099.85267126  .00004388  00000+0  24548-3 0  9996
2 43759  97.4327 150.5418 0009330 166.3541 193.7944 15.13934700402283
CORVUS BC4              
1 43767U 18099K   26099.10628987  .00003070  00000+0  18268-3 0  9998
2 43767  97.4146 144.1109 0007053 231.7481 128.3115 15.11950906401969
M2 PATHFINDER           
1 45727U 20037E   26099.80984536  .00003233  00000+0  23588-3 0  9995
2 45727  97.8172 290.2761 0012043  29.3319 330.8580 15.04384220315213
NETSAT-4                
1 46504U 20068U   26099.49970793  .00015645  00000+0  37288-3 0  9990
2 46504  97.8644 102.3423 0005412 183.6917 176.4289 15.41667871305181
NETSAT-3                
1 46505U 20068V   26099.51621606  .00016679  00000+0  41437-3 0  9999
2 46505  97.8687 100.6698 0004532 201.1221 158.9837 15.40397693305107
NETSAT-1                
1 46506U 20068W   26099.50336320  .00010932  00000+0  34501-3 0  9995
2 46506  97.8762  95.7642 0003452 231.3566 128.7366 15.33044492304774
NETSAT-2                
1 46507U 20068X   26099.49085720  .00020205  00000+0  45692-3 0  9996
2 46507  97.8659 102.0109 0002827 203.9333 156.1782 15.43199143305135
GREENCUBE (IO-117)      
1 53109U 22080E   26098.61482489 -.00000003  00000+0  00000+0 0  9999
2 53109  70.1512 322.4522 0009006 305.0632  54.9183  6.42583235 87597
SITRO-AIS 5 (KATYS)     
1 57176U 23091L   26099.86189131  .00011267  00000+0  41469-3 0  9997
2 57176  97.5116 163.1738 0010951 351.1358   8.9686 15.27973940153900
SITRO-AIS 6 (CHIRKIN)   
1 57192U 23091AC  26099.82288050  .00005837  00000+0  23710-3 0  9996
2 57192  97.5124 162.5962 0011682 355.3108   4.8018 15.24907960153865
SITRO-AIS 8 (ANOKHIN)   
1 57193U 23091AD  26099.86158918  .00012845  00000+0  43870-3 0  9996
2 57193  97.5110 164.4998 0010036 347.7487  12.3508 15.30396138153996
SITRO-AIS 7 (FARTUSHNIY)
1 57194U 23091AE  26099.81282691  .00005500  00000+0  22544-3 0  9993
2 57194  97.5124 162.4442 0011602 356.2763   3.8386 15.24631487153852
SITRO-AIS 10 (BURDAEV)  
1 57199U 23091AK  26099.83876588  .00017308  00000+0  49266-3 0  9993
2 57199  97.5126 168.8685 0005647 323.7095  36.3765 15.36171893154268
SITRO-AIS 9 (SHCHUKIN)  
1 57201U 23091AM  26099.84500883  .00017170  00000+0  49542-3 0  9994
2 57201  97.5124 168.6544 0005875 323.8752  36.2094 15.35747335154258
SITRO-AIS 12 (SMIRENNIY)
1 57204U 23091AQ  26099.84814743  .00017404  00000+0  49785-3 0  9999
2 57204  97.5136 169.0839 0005407 316.5083  43.5733 15.36017583154272
SITRO-AIS 11 (SHEFFER)  
1 57208U 23091AU  26099.81405168  .00017468  00000+0  49374-3 0  9991
2 57208  97.5135 169.2556 0005372 316.7098  43.3723 15.36391675154287
SITRO-AIS 25            
1 59066U 24039R   26099.89034308  .00004460  00000+0  35204-3 0  9995
2 59066  95.3921 188.1751 0145336 206.1159 153.2686 14.92953311114537
SITRO-AIS 26            
1 59067U 24039S   26099.88269083  .00004309  00000+0  34180-3 0  9999
2 59067  95.3924 188.0808 0145561 206.6402 152.7294 14.92762354114522
SITRO-AIS 27            
1 59068U 24039T   26099.87172539  .00005292  00000+0  41555-3 0  9994
2 59068  95.3928 188.3141 0144678 205.3802 154.0270 14.93166168114541
SITRO-AIS 28            
1 59071U 24039U   26099.85075985  .00005708  00000+0  44764-3 0  9990
2 59071  95.3922 188.3430 0144645 205.3160 154.0931 14.93197103114548
GRBBETA                 
1 60237U 24128C   26099.58240369  .00003645  00000+0  25640-3 0  9995
2 60237  61.9888  96.8632 0048529 120.2082 240.3829 15.06105617 95933
OOV-CUBE (TUBSAT-30)    
1 60240U 24128F   26099.44573448  .00002093  00000+0  16851-3 0  9991
2 60240  61.9935 105.2087 0051922 118.7195 241.9128 15.02444952 95783
ROBUSTA-3A (MEDITERRAN*)
1 60243U 24128J   26099.31710075  .00006106  00000+0  37029-3 0  9998
2 60243  61.9857  91.5914 0049100 114.0871 246.5372 15.10637288 96014
LASARSAT                
1 62391U 24247Q   26099.86052759  .00028264  00000+0  64545-3 0  9996
2 62391  44.9751 284.9451 0005979 267.3259  92.6945 15.42400560 72753
CROCUBE                 
1 62394U 24247T   26099.86490256  .00031557  00000+0  68696-3 0  9997
2 62394  44.9727 283.2016 0005550 266.1127  93.9127 15.43776716 72772
FORESAIL-1 PRIME        
1 66778U 25276DS  26099.45863989  .00004608  00000+0  22936-3 0  9996
2 66778  97.4223 174.0101 0002427  25.3919 334.7434 15.18087649 19974
KNACKSAT-2              
1 67683U 98067XZ  26099.86922060  .00036065  00000+0  53953-3 0  9996
2 67683  51.6307 276.6160 0011012 302.4944  57.4981 15.54571080  9631
